{"type": "FeatureCollection", "features": [ {"type": "Feature", "properties": {"norad_id": 67132, "name": "CZ-4B R/B", "group": "last-30-days", "lat": -82.27020897975076, "lon": 153.81753282015083, "alt_km": 334.49166219206745, "timestamp": "2025-12-26T23:26:40.924716+00:00", "meta": {"OBJECT_NAME": "CZ-4B R/B", "OBJECT_ID": "2025-300B", "EPOCH": "2025-12-18T16:13:04.609056", "MEAN_MOTION": 15.63831828, "ECCENTRICITY": 0.01741973, "INCLINATION": 97.5563, "RA_OF_ASC_NODE": 66.966, "ARG_OF_PERICENTER": 9.3582, "MEAN_ANOMALY": 351.0851, "EPHEMERIS_TYPE": 0, "CLASSIFICATION_TYPE": "U", "NORAD_CAT_ID": 67132, "ELEMENT_SET_NO": 999, "REV_AT_EPOCH": 40, "BSTAR": 0.00019566238, "MEAN_MOTION_DOT": 0.00040543, "MEAN_MOTION_DDOT": 2.652968e-06}, "tle": {"line1": "1 67132U 25300B   25352.67574779  .00040543  26530-5  19566-3 0  9995", "line2": "2 67132  97.5563  66.9660 0174197   9.3582 351.0851 15.63831828   407"}}, "geometry": {"type": "Point", "coordinates": [153.81753282015083, -82.27020897975076]}}, {"type": "Feature", "properties": {"norad_id": 67133, "name": "KUIPER-00144", "group": "last-30-days", "lat": 51.64331274918756, "lon": 153.46572117690772, "alt_km": 448.6847213953524, "timestamp": "2025-12-26T23:26:40.924725+00:00", "meta": {"OBJECT_NAME": "KUIPER-00144", "OBJECT_ID": "2025-301A", "EPOCH": "2025-12-26T18:20:59.680032", "MEAN_MOTION": 15.35482899, "ECCENTRICITY": 0.0006208, "INCLINATION": 51.8706, "RA_OF_ASC_NODE": 57.503, "ARG_OF_PERICENTER": 123.3894, "MEAN_ANOMALY": 236.7686, "EPHEMERIS_TYPE": 0, "CLASSIFICATION_TYPE": "U", "NORAD_CAT_ID": 67133, "ELEMENT_SET_NO": 999, "REV_AT_EPOCH": 252, "BSTAR": 0.00095145, "MEAN_MOTION_DOT": 0.00033088, "MEAN_MOTION_DDOT": 0}, "tle": {"line1": "1 67133U 25301A   25360.76457963  .00033088  00000+0  95145-3 0  9992", "line2": "2 67133  51.8706  57.5030 0006208 123.3894 236.7686 15.35482899  2526"}}, "geometry": {"type": "Point", "coordinates": [153.46572117690772, 51.64331274918756]}}, {"type": "Feature", "properties": {"norad_id": 67134, "name": "KUIPER-00164", "group": "last-30-days", "lat": 41.60604710045573, "lon": -167.80442696980631, "alt_km": 449.69265264211936, "timestamp": "2025-12-26T23:26:40.924746+00:00", "meta": {"OBJECT_NAME": "KUIPER-00164", "OBJECT_ID": "2025-301B", "EPOCH": "2025-12-26T15:06:29.032416", "MEAN_MOTION": 15.36165446, "ECCENTRICITY": 0.0003215, "INCLINATION": 51.8731, "RA_OF_ASC_NODE": 58.0973, "ARG_OF_PERICENTER": 103.965, "MEAN_ANOMALY": 256.1693, "EPHEMERIS_TYPE": 0, "CLASSIFICATION_TYPE": "U", "NORAD_CAT_ID": 67134, "ELEMENT_SET_NO": 999, "REV_AT_EPOCH": 268, "BSTAR": 0.0006672, "MEAN_MOTION_DOT": 0.00023565, "MEAN_MOTION_DDOT": 0}, "tle": {"line1": "1 67134U 25301B   25360.62950269  .00023565  00000+0  66720-3 0  9991", "line2": "2 67134  51.8731  58.0973 0003215 103.9650 256.1693 15.36165446  2684"}}, "geometry": {"type": "Point", "coordinates": [-167.80442696980631, 41.60604710045573]}}, {"type": "Feature", "properties": {"norad_id": 67135, "name": "KUIPER-00175", "group": "last-30-days", "lat": 29.51535178697204, "lon": -150.02409453538945, "alt_km": 452.11382552129453, "timestamp": "2025-12-26T23:26:40.924756+00:00", "meta": {"OBJECT_NAME": "KUIPER-00175", "OBJECT_ID": "2025-301C", "EPOCH": "2025-12-26T18:09:02.922912", "MEAN_MOTION": 15.36627409, "ECCENTRICITY": 0.0002162, "INCLINATION": 51.8749, "RA_OF_ASC_NODE": 57.4404, "ARG_OF_PERICENTER": 59.5648, "MEAN_ANOMALY": 300.5551, "EPHEMERIS_TYPE": 0, "CLASSIFICATION_TYPE": "U", "NORAD_CAT_ID": 67135, "ELEMENT_SET_NO": 999, "REV_AT_EPOCH": 259, "BSTAR": 0.00084262, "MEAN_MOTION_DOT": 0.0003034, "MEAN_MOTION_DDOT": 0}, "tle": {"line1": "1 67135U 25301C   25360.75628383  .00030340  00000+0  84262-3 0  9995", "line2": "2 67135  51.8749  57.4404 0002162  59.5648 300.5551 15.36627409  2598"}}, "geometry": {"type": "Point", "coordinates": [-150.02409453538945, 29.51535178697204]}}, {"type": "Feature", "properties": {"norad_id": 67136, "name": "KUIPER-00179", "group": "last-30-days", "lat": 37.31051010396339, "lon": -160.36292804395356, "alt_km": 450.56705929688815, "timestamp": "2025-12-26T23:26:40.924765+00:00", "meta": {"OBJECT_NAME": "KUIPER-00179", "OBJECT_ID": "2025-301D", "EPOCH": "2025-12-26T18:12:00.163008", "MEAN_MOTION": 15.3628107, "ECCENTRICITY": 0.0002994, "INCLINATION": 51.8746, "RA_OF_ASC_NODE": 57.4564, "ARG_OF_PERICENTER": 88.5033, "MEAN_ANOMALY": 271.6296, "EPHEMERIS_TYPE": 0, "CLASSIFICATION_TYPE": "U", "NORAD_CAT_ID": 67136, "ELEMENT_SET_NO": 999, "REV_AT_EPOCH": 270, "BSTAR": 0.00083358, "MEAN_MOTION_DOT": 0.00029673, "MEAN_MOTION_DDOT": 0}, "tle": {"line1": "1 67136U 25301D   25360.75833522  .00029673  00000+0  83358-3 0  9991", "line2": "2 67136  51.8746  57.4564 0002994  88.5033 271.6296 15.36281070  2703"}}, "geometry": {"type": "Point", "coordinates": [-160.36292804395356, 37.31051010396339]}}, {"type": "Feature", "properties": {"norad_id": 67137, "name": "KUIPER-00181", "group": "last-30-days", "lat": 39.89324322269219, "lon": 97.61264130350762, "alt_km": 457.2970842477407, "timestamp": "2025-12-26T23:26:40.924774+00:00", "meta": {"OBJECT_NAME": "KUIPER-00181", "OBJECT_ID": "2025-301E", "EPOCH": "2025-12-26T18:31:05.609280", "MEAN_MOTION": 15.34464358, "ECCENTRICITY": 0.0010017, "INCLINATION": 51.8644, "RA_OF_ASC_NODE": 57.5486, "ARG_OF_PERICENTER": 145.4576, "MEAN_ANOMALY": 214.7062, "EPHEMERIS_TYPE": 0, "CLASSIFICATION_TYPE": "U", "NORAD_CAT_ID": 67137, "ELEMENT_SET_NO": 999, "REV_AT_EPOCH": 268, "BSTAR": 0.00070631, "MEAN_MOTION_DOT": 0.00023665, "MEAN_MOTION_DDOT": 0}, "tle": {"line1": "1 67137U 25301E   25360.77159270  .00023665  00000+0  70631-3 0  9990", "line2": "2 67137  51.8644  57.5486 0010017 145.4576 214.7062 15.34464358  2681"}}, "geometry": {"type": "Point", "coordinates": [97.61264130350762, 39.89324322269219]}}, {"type": "Feature", "properties": {"norad_id": 67138, "name": "KUIPER-00183", "group": "last-30-days", "lat": 31.542479928605676, "lon": 85.42093468041475, "alt_km": 461.91616252572203, "timestamp": "2025-12-26T23:26:40.924785+00:00", "meta": {"OBJECT_NAME": "KUIPER-00183", "OBJECT_ID": "2025-301F", "EPOCH": "2025-12-26T18:34:23.767680", "MEAN_MOTION": 15.34130983, "ECCENTRICITY": 0.001122, "INCLINATION": 51.8616, "RA_OF_ASC_NODE": 57.5624, "ARG_OF_PERICENTER": 149.9887, "MEAN_ANOMALY": 210.1743, "EPHEMERIS_TYPE": 0, "CLASSIFICATION_TYPE": "U", "NORAD_CAT_ID": 67138, "ELEMENT_SET_NO": 999, "REV_AT_EPOCH": 269, "BSTAR": 0.00098114, "MEAN_MOTION_DOT": 0.00032724, "MEAN_MOTION_DDOT": 0}, "tle": {"line1": "1 67138U 25301F   25360.77388620  .00032724  00000+0  98114-3 0  9996", "line2": "2 67138  51.8616  57.5624 0011220 149.9887 210.1743 15.34130983  2697"}}, "geometry": {"type": "Point", "coordinates": [85.42093468041475, 31.542479928605676]}}, {"type": "Feature", "properties": {"norad_id": 67139, "name": "KUIPER-00184", "group": "last-30-days", "lat": 42.4324267370715, "lon": 102.4608908362139, "alt_km": 456.3976693997811, "timestamp": "2025-12-26T23:26:40.924798+00:00", "meta": {"OBJECT_NAME": "KUIPER-00184", "OBJECT_ID": "2025-301G", "EPOCH": "2025-12-26T15:22:21.745344", "MEAN_MOTION": 15.34443698, "ECCENTRICITY": 0.000899, "INCLINATION": 51.8629, "RA_OF_ASC_NODE": 58.1701, "ARG_OF_PERICENTER": 144.075, "MEAN_ANOMALY": 216.0841, "EPHEMERIS_TYPE": 0, "CLASSIFICATION_TYPE": "U", "NORAD_CAT_ID": 67139, "ELEMENT_SET_NO": 999, "REV_AT_EPOCH": 278, "BSTAR": 8.2317e-05, "MEAN_MOTION_DOT": 2.409e-05, "MEAN_MOTION_DDOT": 0}, "tle": {"line1": "1 67139U 25301G   25360.64052946  .00002409  00000+0  82317-4 0  9998", "line2": "2 67139  51.8629  58.1701 0008990 144.0750 216.0841 15.34443698  2784"}}, "geometry": {"type": "Point", "coordinates": [102.4608908362139, 42.4324267370715]}}, {"type": "Feature", "properties": {"norad_id": 67140, "name": "KUIPER-00186", "group": "last-30-days", "lat": 50.464379954159675, "lon": 128.63585499060085, "alt_km": 450.76949120075005, "timestamp": "2025-12-26T23:26:40.924807+00:00", "meta": {"OBJECT_NAME": "KUIPER-00186", "OBJECT_ID": "2025-301H", "EPOCH": "2025-12-26T18:24:57.394080", "MEAN_MOTION": 15.35057816, "ECCENTRICITY": 0.0007732, "INCLINATION": 51.8686, "RA_OF_ASC_NODE": 57.5207, "ARG_OF_PERICENTER": 133.1569, "MEAN_ANOMALY": 227.0064, "EPHEMERIS_TYPE": 0, "CLASSIFICATION_TYPE": "U", "NORAD_CAT_ID": 67140, "ELEMENT_SET_NO": 999, "REV_AT_EPOCH": 252, "BSTAR": 0.00091971, "MEAN_MOTION_DOT": 0.0003154, "MEAN_MOTION_DDOT": 0}, "tle": {"line1": "1 67140U 25301H   25360.76733095  .00031540  00000+0  91971-3 0  9997", "line2": "2 67140  51.8686  57.5207 0007732 133.1569 227.0064 15.35057816  2528"}}, "geometry": {"type": "Point", "coordinates": [128.63585499060085, 50.464379954159675]}}, {"type": "Feature", "properties": {"norad_id": 67141, "name": "KUIPER-00187", "group": "last-30-days", "lat": 47.73443408389985, "lon": 176.64957385745114, "alt_km": 448.864350045018, "timestamp": "2025-12-26T23:26:40.924816+00:00", "meta": {"OBJECT_NAME": "KUIPER-00187", "OBJECT_ID": "2025-301J", "EPOCH": "2025-12-26T15:09:39.644640", "MEAN_MOTION": 15.35854825, "ECCENTRICITY": 0.0004362, "INCLINATION": 51.8715, "RA_OF_ASC_NODE": 58.1127, "ARG_OF_PERICENTER": 117.8868, "MEAN_ANOMALY": 242.2561, "EPHEMERIS_TYPE": 0, "CLASSIFICATION_TYPE": "U", "NORAD_CAT_ID": 67141, "ELEMENT_SET_NO": 999, "REV_AT_EPOCH": 250, "BSTAR": 0.00061789, "MEAN_MOTION_DOT": 0.00021573, "MEAN_MOTION_DDOT": 0}, "tle": {"line1": "1 67141U 25301J   25360.63170885  .00021573  00000+0  61789-3 0  9995", "line2": "2 67141  51.8715  58.1127 0004362 117.8868 242.2561 15.35854825  2501"}}, "geometry": {"type": "Point", "coordinates": [176.64957385745114, 47.73443408389985]}}]}